DRAGON CRS-33           
1 65304U 25186A   25241.81611881  .00010865  00000+0  19612-3 0  9999
2 65304  51.6343 302.1368 0003267 289.8070  70.2567 15.50285113   117
HULIANWANG DIGUI 10A    
1 65305U 25187A   25240.97052450 -.00000096  00000+0  34279-4 0  9991
2 65305  50.0055 198.3287 0007409 278.7673  81.2393 14.05837177   452
HULIANWANG DIGUI 10B    
1 65306U 25187B   25241.96557535 -.00000090  00000+0  38056-4 0  9997
2 65306  50.0086 194.2643 0005467 281.1156  78.9134 14.05885787   595
HULIANWANG DIGUI 10C    
1 65307U 25187C   25241.96484756 -.00000088  00000+0  38974-4 0  9998
2 65307  50.0094 194.2610 0004985 288.1865  71.8498 14.06131234   594
HULIANWANG DIGUI 10D    
1 65308U 25187D   25241.04201105 -.00000095  00000+0  34549-4 0  9995
2 65308  50.0011 198.0352 0007266 273.5259  86.4815 14.05664538   467
HULIANWANG DIGUI 10E    
1 65309U 25187E   25240.40225543 -.00000098  00000+0  33002-4 0  9993
2 65309  50.0064 200.6539 0006802 260.8140  99.1996 14.05621198   372
HULIANWANG DIGUI 10F    
1 65310U 25187F   25241.96540934 -.00000089  00000+0  38343-4 0  9994
2 65310  50.0107 194.2637 0006317 286.3786  73.6425 14.05938549   598
HULIANWANG DIGUI 10G    
1 65311U 25187G   25241.18457497 -.00000093  00000+0  36077-4 0  9997
2 65311  50.0028 197.4568 0007505 271.6553  88.3492 14.05510674   488
HULIANWANG DIGUI 10H    
1 65312U 25187H   25241.04180953 -.00000108  00000+0  27110-4 0  9998
2 65312  50.0026 198.0362 0005934 265.2600  94.7627 14.05753322   460
HULIANWANG DIGUI 10J    
1 65313U 25187J   25241.96510744 -.00000088  00000+0  38742-4 0  9995
2 65313  50.0062 194.2605 0006510 289.7735  70.2468 14.06049005   593
CZ-8A R/B               
1 65314U 25187K   25241.96502245 -.00000068  00000+0  34871-4 0  9990
2 65314  50.0054 193.6012 0116166  97.8084 263.6038 14.30456431   609
PELICAN-300A            
1 65315U 25188A   25241.89404245  .00012437  00000+0  36570-3 0  9994
2 65315  97.2524 316.5332 0003717 137.1931 222.9603 15.35227563   482
PELICAN-300B            
1 65316U 25188B   25241.89453848  .00010391  00000+0  30837-3 0  9995
2 65316  97.2566 316.5335 0004671 143.8938 216.2622 15.34978190   488
NAOS                    
1 65317U 25188C   25241.89462727  .00021151  00000+0  62475-3 0  9991
2 65317  97.2526 316.5325 0004958 143.9179 216.2400 15.34964130   483
FFLY03                  
1 65318U 25188D   25241.91992354  .00003717  00000+0  39202-3 0  9999
2 65318  97.7651 316.6910 0005210 121.1863 238.9867 14.89900804   473
2025-188E               
1 65319U 25188E   25241.92023865  .00001951  00000+0  20934-3 0  9993
2 65319  97.7631 316.6884 0005577 113.8653 246.3150 14.89743394   469
FFLY01                  
1 65320U 25188F   25241.92072834  .00002045  00000+0  22044-3 0  9994
2 65320  97.7689 316.6935 0004458 101.0440 259.1279 14.89507232   464
FFLY02                  
1 65321U 25188G   25241.92097201  .00003244  00000+0  34714-3 0  9999
2 65321  97.7683 316.6926 0004611  94.4946 265.6798 14.89393810   469
2025-188H               
1 65322U 25188H   25241.92113102  .00001938  00000+0  21022-3 0  9995
2 65322  97.7675 316.6917 0004827  91.7945 268.3826 14.89312660   465
